XRISM                   
1 57800U 23137A   24111.83303850  .00011067  00000+0  85273-3 0  9997
2 57800  31.0054  17.5028 0010007 358.2882   1.7718 15.00398794 34065
